     2.11           N: GPS NAV DATA                         RINEX VERSION / TYPE
teqc  2019Feb25                         20221121 12:28:38UTCPGM / RUN BY / DATE
OSX ker:10.11.6|Core i5|gcc 4.3 -m64|OSX ker:10.10+|=+      COMMENT
    1.2107D-08  0.0000D+00 -1.1921D-07  0.0000D+00          ION ALPHA
    9.4208D+04  0.0000D+00 -1.9661D+05  0.0000D+00          ION BETA
    1.862645149231D-09 7.993605777301D-15   503808     1554 DELTA-UTC: A0,A1,T,W
                                                            END OF HEADER
 2 09 10 23  0  0  0.0 1.836605370045D-04 3.865352482535D-12 0.000000000000D+00
    7.500000000000D+01 1.703125000000D+01 5.093783605105D-09-8.133590292912D-01
    8.549541234970D-07 9.123716969043D-03 8.812174201012D-06 5.153722896576D+03
    4.320000000000D+05 5.774199962616D-08-3.044249376543D+00-1.285225152969D-07
    9.410994735763D-01 1.996875000000D+02 2.906785072317D+00-8.169626012001D-09
   -2.232235838726D-10 1.000000000000D+00 1.554000000000D+03 0.000000000000D+00
    2.000000000000D+00 0.000000000000D+00-1.722946763039D-08 7.500000000000D+01
    4.290420000000D+05 4.000000000000D+00
 4 09 10 23  0  0  0.0-3.235666081309D-04-1.784883352229D-11 0.000000000000D+00
    4.500000000000D+01 1.328125000000D+01 5.049496046064D-09 2.032075802605D+00
    7.431954145432D-07 8.962398511358D-03 9.380280971527D-06 5.153561010361D+03
    4.320000000000D+05-2.309679985046D-07-3.026079335665D+00 1.117587089539D-08
    9.402846472241D-01 1.905000000000D+02 5.422240336703D-01-8.084979628997D-09
   -3.107272287506D-10 1.000000000000D+00 1.554000000000D+03 0.000000000000D+00
    2.000000000000D+00 0.000000000000D+00-6.053596735001D-09 4.500000000000D+01
    4.290420000000D+05 4.000000000000D+00
 5 09 10 23  0  0  0.0-5.950033664703D-05 8.185452315956D-12 0.000000000000D+00
    5.000000000000D+00 1.055937500000D+02 4.471614832135D-09 5.824382618972D-01
    5.517154932022D-06 1.567100640386D-03 7.282942533493D-06 5.153585968018D+03
    4.320000000000D+05-1.117587089539D-08-1.986328386642D+00-4.470348358154D-08
    9.611000024043D-01 2.363437500000D+02 2.165162922812D-01-8.023191340981D-09
   -9.536111503035D-11 1.000000000000D+00 1.554000000000D+03 0.000000000000D+00
    2.000000000000D+00 0.000000000000D+00-9.313225746155D-09 5.000000000000D+00
    4.290420000000D+05 4.000000000000D+00
10 09 10 23  0  0  0.0-2.651009708643D-05-9.094947017729D-13 0.000000000000D+00
    2.500000000000D+01 1.016250000000D+02 4.655551065246D-09 3.125365866776D-01
    5.446374416351D-06 8.646809146740D-03 7.012858986855D-06 5.153392948151D+03
    4.320000000000D+05 1.303851604462D-08-1.959347522255D+00 8.009374141693D-08
    9.561573376425D-01 2.395937500000D+02 6.159302016109D-01-8.214985044244D-09
   -1.035757429169D-10 1.000000000000D+00 1.554000000000D+03 0.000000000000D+00
    2.000000000000D+00 0.000000000000D+00-2.793967723846D-09 2.500000000000D+01
    4.290420000000D+05 4.000000000000D+00
13 09 10 23  0  0  0.0 3.058118745685D-04 2.273736754432D-13 0.000000000000D+00
    2.300000000000D+01 7.968750000000D+00 3.905519823434D-09-1.846276829869D-01
    3.799796104431D-07 3.954249434173D-03 2.859160304070D-06 5.153637805939D+03
    4.320000000000D+05-2.980232238770D-08-8.728848089845D-01 2.421438694000D-08
    9.941176655396D-01 3.410625000000D+02 1.660549275331D+00-8.024262814183D-09
   -1.303625729816D-10 1.000000000000D+00 1.554000000000D+03 0.000000000000D+00
    2.000000000000D+00 0.000000000000D+00-1.117587089539D-08 2.300000000000D+01
    4.290420000000D+05 4.000000000000D+00
23 09 10 23  0  0  0.0 3.871279768646D-04-5.684341886081D-13 0.000000000000D+00
    9.300000000000D+01 1.150000000000D+01 4.398040338891D-09-9.144537315370D-01
    5.383044481277D-07 6.378939375281D-03 2.630054950714D-06 5.153763826370D+03
    4.320000000000D+05 1.676380634308D-08-9.284455554955D-01-9.313225746155D-08
    9.694167867746D-01 3.328437500000D+02 2.993309578627D+00-8.224985460802D-09
   -6.357407668690D-11 1.000000000000D+00 1.554000000000D+03 0.000000000000D+00
    2.000000000000D+00 0.000000000000D+00-2.002343535423D-08 9.300000000000D+01
    4.290420000000D+05 4.000000000000D+00
29 09 10 23  0  0  0.0 6.823847070336D-05 3.183231456205D-12 0.000000000000D+00
    6.000000000000D+00-9.593750000000D+00 4.756626704023D-09 2.892503518896D+00
   -7.227063179016D-07 2.955045434646D-03 6.450340151787D-06 5.153579360962D+03
    4.320000000000D+05 5.029141902924D-08 2.234012272950D+00 1.862645149231D-08
    9.599763774522D-01 2.542500000000D+02-1.270656399665D+00-7.947116743597D-09
    1.342913080577D-10 1.000000000000D+00 1.554000000000D+03 0.000000000000D+00
    2.000000000000D+00 0.000000000000D+00-8.847564458847D-09 6.000000000000D+00
    4.290420000000D+05 4.000000000000D+00
30 09 10 23  0  0  0.0 1.870621927083D-04 3.069544618484D-12 0.000000000000D+00
    1.200000000000D+02-5.168750000000D+01 4.462328731046D-09 1.312938507947D+00
   -2.805143594742D-06 1.192757359240D-02 8.888542652130D-06 5.153662902832D+03
    4.320000000000D+05-1.695007085800D-07 1.115380476805D+00-1.899898052216D-07
    9.533862021450D-01 2.055937500000D+02 1.464671850330D+00-8.059978587603D-09
    4.025167664390D-10 1.000000000000D+00 1.554000000000D+03 0.000000000000D+00
    2.800000000000D+00 0.000000000000D+00-7.916241884232D-09 1.200000000000D+02
    4.290420000000D+05 4.000000000000D+00
31 09 10 23  0  0  0.0-6.248010322452D-05 6.821210263297D-13 0.000000000000D+00
    4.500000000000D+01-8.687500000000D+01 4.019453140643D-09-2.664761559844D+00
   -4.455447196960D-06 7.224814733490D-03 6.008893251419D-06 5.153543691635D+03
    4.320000000000D+05 1.452863216400D-07 1.115970906153D-01 3.352761268616D-08
    9.748693282263D-01 2.733125000000D+02-1.148760487194D+00-7.752108620726D-09
   -1.496490906282D-10 1.000000000000D+00 1.554000000000D+03 0.000000000000D+00
    2.000000000000D+00 0.000000000000D+00-1.303851604462D-08 4.500000000000D+01
    4.290480000000D+05 4.000000000000D+00
25 09 10 23  0  0  0.0 6.407862529159D-04 1.341504685115D-11 0.000000000000D+00
    8.000000000000D+01-8.353125000000D+01 4.017667351972D-09 2.057000307417D+00
   -4.353001713753D-06 1.125101384241D-02 5.729496479034D-06 5.153645523071D+03
    4.320000000000D+05 1.918524503708D-07 1.884680141064D-02 2.607703208923D-08
    9.716520363617D-01 2.721562500000D+02-1.215207643922D+00-7.748179885650D-09
   -1.828647599084D-10 1.000000000000D+00 1.554000000000D+03 0.000000000000D+00
    2.800000000000D+00 0.000000000000D+00-7.450580596924D-09 8.000000000000D+01
    4.293480000000D+05 4.000000000000D+00
16 09 10 23  0  0  0.0-3.706663846970D-07-4.092726157978D-12 0.000000000000D+00
    5.100000000000D+01-3.934375000000D+01 4.121243094889D-09 1.418679900295D+00
   -1.937150955200D-06 5.300992634147D-03 8.404254913330D-06 5.153643047333D+03
    4.320000000000D+05 4.470348358154D-08 1.182695236118D+00 1.080334186554D-07
    9.695478744749D-01 2.210937500000D+02-2.707657229135D-01-7.709606850357D-09
    3.425142670940D-10 1.000000000000D+00 1.554000000000D+03 0.000000000000D+00
    2.000000000000D+00 0.000000000000D+00-9.778887033463D-09 5.100000000000D+01
    4.314180000000D+05 4.000000000000D+00
 7 09 10 23  0  0  0.0 9.106937795877D-06-6.821210263297D-13 0.000000000000D+00
    4.400000000000D+01-8.503125000000D+01 4.114099940205D-09-2.527228047889D+00
   -4.425644874573D-06 3.234280971810D-03 6.677582859993D-06 5.153650712967D+03
    4.320000000000D+05-5.774199962616D-08 1.129999120199D-01-1.490116119385D-08
    9.695423270896D-01 2.554687500000D+02 2.997260276676D+00-7.892828767999D-09
   -8.607501394126D-11 1.000000000000D+00 1.554000000000D+03 0.000000000000D+00
    2.000000000000D+00 0.000000000000D+00-1.071020960808D-08 4.400000000000D+01
    4.317180000000D+05 4.000000000000D+00
